OBJECT_NAME,OBJECT_ID,EPOCH,MEAN_MOTION,ECCENTRICITY,INCLINATION,RA_OF_ASC_NODE,ARG_OF_PERICENTER,MEAN_ANOMALY,EPHEMERIS_TYPE,CLASSIFICATION_TYPE,NORAD_CAT_ID,ELEMENT_SET_NO,REV_AT_EPOCH,BSTAR,MEAN_MOTION_DOT,MEAN_MOTION_DDOT
FENGYUN 3D,2017-072A,2026-07-02T05:29:41.183232,14.19742388,.00021902,99.0131,157.9238,37.8141,322.3188,0,U,43010,999,44712,.71012425E-4,.104E-5,0
NOAA 20 (JPSS-1),2017-073A,2026-07-02T07:07:29.144640,14.19514503,.0000866,98.7773,122.6253,132.4393,227.6856,0,U,43013,999,44661,.56528309E-4,.75E-6,0
GOES 17,2018-022A,2026-07-02T01:34:49.656864,1.00271917,.00007369,0.9728,85.4775,40.0959,88.7479,0,U,43226,999,3057,0,-.173E-5,0
SENTINEL-3B,2018-039A,2026-07-02T04:44:24.201312,14.26739089,.00008281,98.6244,250.5141,117.5951,242.5314,0,U,43437,999,42626,.75333636E-4,.139E-5,0
FENGYUN 2H,2018-050A,2026-07-02T02:22:58.402848,1.00269531,.00017702,3.0681,78.9055,121.8031,194.4786,0,U,43491,999,2958,0,-.12E-5,0
METOP-C,2018-087A,2026-07-02T06:31:15.363840,14.21516245,.00021445,98.6637,242.5991,110.2259,249.9150,0,U,43689,999,39697,.79621108E-4,.131E-5,0
GEO-KOMPSAT-2A,2018-100A,2026-07-01T11:13:05.146752,1.00255173,.00025893,0.0517,181.9048,289.1691,104.9700,0,U,43823,999,2777,0,-.334E-5,0
METEOR-M2 2,2019-038A,2026-07-02T06:39:21.235968,14.24370949,.00014486,98.9146,170.7859,25.4616,334.6633,0,U,44387,999,36344,.16193173E-3,.329E-5,0
ARKTIKA-M 1,2021-016A,2026-06-29T22:50:46.732128,2.00617895,.72928178,63.2520,55.7907,269.9910,14.5481,0,U,47719,999,3904,0,-.281E-5,0
FENGYUN 3E,2021-062A,2026-07-02T06:45:31.426272,14.19906211,.00026929,98.7488,186.5213,61.2987,298.8459,0,U,49008,999,25872,.18191849E-3,.342E-5,0
GOES 18,2022-021A,2026-07-02T06:25:33.487680,1.00271362,.00005489,0.0213,199.7886,300.2471,99.6575,0,U,51850,999,674,0,.107E-5,0
NOAA 21 (JPSS-2),2022-150A,2026-07-02T06:12:47.732256,14.19539213,.00024419,98.7061,121.7949,127.6563,232.4835,0,U,54234,999,18868,.4747485E-4,.57E-6,0
METEOSAT-12 (MTG-I1),2022-170C,2026-07-02T05:25:36.356736,1.00276252,.00036339,0.7545,25.2507,74.3076,261.8618,0,U,54743,999,1312,0,.4E-7,0
TIANMU-1 03,2023-039A,2026-07-02T07:27:22.413312,15.47715827,.00036748,97.5234,357.8761,61.0102,299.1516,0,U,55973,999,18317,.32764533E-3,.16877E-3,0
TIANMU-1 04,2023-039B,2026-07-02T07:03:42.773184,15.48329519,.00040867,97.5172,357.0139,55.2617,304.9017,0,U,55974,999,18318,.32595374E-3,.17153E-3,0
TIANMU-1 05,2023-039C,2026-07-02T07:00:44.045280,15.47641132,.00037549,97.5218,357.4661,78.2840,281.8831,0,U,55975,999,18315,.32767451E-3,.16835E-3,0
TIANMU-1 06,2023-039D,2026-07-02T07:09:57.339648,15.48229065,.00039846,97.5224,358.1240,73.5352,286.6336,0,U,55976,999,18318,.3259925E-3,.17095E-3,0
FENGYUN 3G,2023-055A,2026-07-02T07:00:13.399200,15.53298931,.0007295,49.9925,268.1581,359.7344,0.3618,0,U,56232,999,18235,.37840034E-3,.23964E-3,0
METEOR-M2 3,2023-091A,2026-07-02T06:36:10.496736,14.24048073,.00050009,98.6074,237.9442,119.2565,240.9115,0,U,57166,999,15666,.23577475E-4,.11E-6,0
TIANMU-1 07,2023-101A,2026-07-02T06:35:12.570720,15.29984573,.00042902,97.2580,233.5971,91.1458,269.0275,0,U,57399,999,16395,.27012132E-3,.7769E-4,0
TIANMU-1 08,2023-101B,2026-07-02T05:47:06.833184,15.29988162,.00055015,97.2569,233.3328,79.1898,280.9962,0,U,57400,999,16394,.25722521E-3,.7396E-4,0
TIANMU-1 09,2023-101C,2026-07-02T06:56:56.326848,15.30024858,.00048979,97.2526,232.7883,93.5830,266.5972,0,U,57401,999,16395,.26526849E-3,.7638E-4,0
TIANMU-1 10,2023-101D,2026-07-02T07:44:55.364064,15.29997772,.00063506,97.2606,233.8869,87.7926,272.4043,0,U,57402,999,16395,.24795838E-3,.713E-4,0
FENGYUN 3F,2023-111A,2026-07-02T06:21:50.979168,14.19941667,.00014934,98.6831,252.9926,82.9317,277.2030,0,U,57490,999,15100,.51557293E-4,.66E-6,0
ARKTIKA-M 2,2023-198A,2026-06-29T17:20:14.637696,2.00610643,.69058771,63.2199,152.9641,267.3845,18.7575,0,U,58584,999,1857,0,.148E-5,0
TIANMU-1 11,2023-205A,2026-07-02T07:42:42.364224,15.27151301,.00072386,97.3437,204.6414,319.5730,40.4971,0,U,58645,999,13983,.24734515E-3,.6516E-4,0
TIANMU-1 12,2023-205B,2026-07-02T05:26:32.475264,15.27048438,.00053113,97.3426,204.3005,297.9410,62.1291,0,U,58646,999,13980,.24902744E-3,.6538E-4,0
TIANMU-1 13,2023-205C,2026-07-02T07:48:57.413664,15.26971851,.00049619,97.3453,204.6733,271.6320,88.4350,0,U,58647,999,13981,.25414768E-3,.6659E-4,0
TIANMU-1 14,2023-205D,2026-07-02T07:27:00.962784,15.27016220,.00057664,97.3390,203.8282,278.9049,81.1537,0,U,58648,999,13981,.24191966E-3,.6344E-4,0
TIANMU-1 19,2023-208A,2026-07-02T07:30:28.878336,15.31803427,.00036218,97.4522,299.6925,253.7586,106.3257,0,U,58660,999,13964,.30416186E-3,.9265E-4,0
