FENGYUN 3D              
1 43010U 17072A   26183.22894888  .00000104  00000+0  71012-4 0  9993
2 43010  99.0131 157.9238 0002190  37.8141 322.3188 14.19742388447126
NOAA 20 (JPSS-1)        
1 43013U 17073A   26183.29686510  .00000075  00000+0  56528-4 0  9997
2 43013  98.7773 122.6253 0000866 132.4393 227.6856 14.19514503446610
GOES 17                 
1 43226U 18022A   26183.06585251 -.00000173  00000+0  00000+0 0  9992
2 43226   0.9728  85.4775 0000736  40.0959  88.7479  1.00271917 30570
SENTINEL-3B             
1 43437U 18039A   26183.19750233  .00000139  00000+0  75334-4 0  9990
2 43437  98.6244 250.5141 0000828 117.5951 242.5314 14.26739089426261
FENGYUN 2H              
1 43491U 18050A   26183.09928707 -.00000120  00000+0  00000+0 0  9999
2 43491   3.0681  78.9055 0001770 121.8031 194.4786  1.00269531 29586
METOP-C                 
1 43689U 18087A   26183.27170560  .00000131  00000+0  79621-4 0  9995
2 43689  98.6637 242.5991 0002144 110.2259 249.9150 14.21516245396979
GEO-KOMPSAT-2A          
1 43823U 18100A   26182.46742068 -.00000334  00000+0  00000+0 0  9995
2 43823   0.0517 181.9048 0002589 289.1691 104.9700  1.00255173 27774
METEOR-M2 2             
1 44387U 19038A   26183.27732912  .00000329  00000+0  16193-3 0  9996
2 44387  98.9146 170.7859 0001448  25.4616 334.6633 14.24370949363444
ARKTIKA-M 1             
1 47719U 21016A   26180.95192977 -.00000281  00000+0  00000+0 0  9994
2 47719  63.2520  55.7907 7292817 269.9910  14.5481  2.00617895 39040
FENGYUN 3E              
1 49008U 21062A   26183.28161373  .00000342  00000+0  18192-3 0  9995
2 49008  98.7488 186.5213 0002692  61.2987 298.8459 14.19906211258728
GOES 18                 
1 51850U 22021A   26183.26774870  .00000107  00000+0  00000+0 0  9993
2 51850   0.0213 199.7886 0000548 300.2471  99.6575  1.00271362  6749
NOAA 21 (JPSS-2)        
1 54234U 22150A   26183.25888579  .00000057  00000+0  47475-4 0  9992
2 54234  98.7061 121.7949 0002441 127.6563 232.4835 14.19539213188681
METEOSAT-12 (MTG-I1)    
1 54743U 22170C   26183.22611524  .00000004  00000+0  00000+0 0  9990
2 54743   0.7545  25.2507 0003633  74.3076 261.8618  1.00276252 13123
TIANMU-1 03             
1 55973U 23039A   26183.31067608  .00016877  00000+0  32765-3 0  9991
2 55973  97.5234 357.8761 0003674  61.0102 299.1516 15.47715827183178
TIANMU-1 04             
1 55974U 23039B   26183.29424506  .00017153  00000+0  32595-3 0  9992
2 55974  97.5172 357.0139 0004086  55.2617 304.9017 15.48329519183187
TIANMU-1 05             
1 55975U 23039C   26183.29217645  .00016835  00000+0  32767-3 0  9994
2 55975  97.5218 357.4661 0003754  78.2840 281.8831 15.47641132183158
TIANMU-1 06             
1 55976U 23039D   26183.29858032  .00017095  00000+0  32599-3 0  9998
2 55976  97.5224 358.1240 0003984  73.5352 286.6336 15.48229065183182
FENGYUN 3G              
1 56232U 23055A   26183.29182175  .00023964  00000+0  37840-3 0  9996
2 56232  49.9925 268.1581 0007295 359.7344   0.3618 15.53298931182350
METEOR-M2 3             
1 57166U 23091A   26183.27512149  .00000011  00000+0  23577-4 0  9990
2 57166  98.6074 237.9442 0005000 119.2565 240.9115 14.24048073156665
TIANMU-1 07             
1 57399U 23101A   26183.27445105  .00007769  00000+0  27012-3 0  9991
2 57399  97.2580 233.5971 0004290  91.1458 269.0275 15.29984573163957
TIANMU-1 08             
1 57400U 23101B   26183.24105131  .00007396  00000+0  25723-3 0  9996
2 57400  97.2569 233.3328 0005501  79.1898 280.9962 15.29988162163943
TIANMU-1 09             
1 57401U 23101C   26183.28954082  .00007638  00000+0  26527-3 0  9990
2 57401  97.2526 232.7883 0004897  93.5830 266.5972 15.30024858163956
TIANMU-1 10             
1 57402U 23101D   26183.32286301  .00007130  00000+0  24796-3 0  9991
2 57402  97.2606 233.8869 0006350  87.7926 272.4043 15.29997772163956
FENGYUN 3F              
1 57490U 23111A   26183.26517337  .00000066  00000+0  51557-4 0  9995
2 57490  98.6831 252.9926 0001493  82.9317 277.2030 14.19941667151000
ARKTIKA-M 2             
1 58584U 23198A   26180.72239164  .00000148  00000+0  00000+0 0  9995
2 58584  63.2199 152.9641 6905877 267.3845  18.7575  2.00610643 18573
TIANMU-1 11             
1 58645U 23205A   26183.32132366  .00006516  00000+0  24735-3 0  9997
2 58645  97.3437 204.6414 0007238 319.5730  40.4971 15.27151301139837
TIANMU-1 12             
1 58646U 23205B   26183.22676476  .00006538  00000+0  24903-3 0  9993
2 58646  97.3426 204.3005 0005311 297.9410  62.1291 15.27048438139802
TIANMU-1 13             
1 58647U 23205C   26183.32566451  .00006659  00000+0  25415-3 0  9999
2 58647  97.3453 204.6733 0004961 271.6320  88.4350 15.26971851139814
TIANMU-1 14             
1 58648U 23205D   26183.31042781  .00006344  00000+0  24192-3 0  9996
2 58648  97.3390 203.8282 0005766 278.9049  81.1537 15.27016220139815
TIANMU-1 19             
1 58660U 23208A   26183.31283424  .00009265  00000+0  30416-3 0  9995
2 58660  97.4522 299.6925 0003621 253.7586 106.3257 15.31803427139647
